CAS-2T & KS-1Q          
1 41847U 16066G   21033.78160659  .00000082  00000-0  23626-4 0  9997
2 41847  98.6224  92.2243 0364338 262.2403  93.7281 14.38141847222529
NAYIF-1 (EO-88)         
1 42017U 17008BX  21033.90371290  .00002547  00000-0  97521-4 0  9996
2 42017  97.3332 103.8651 0005119 212.0778 148.0151 15.27449275220718
ZHUHAI-1 02 (CAS-4B)    
1 42759U 17034B   21033.90640102  .00000101  00000-0  19510-4 0  9995
2 42759  43.0160 200.6891 0009512  33.1426 125.1138 15.10057185200809
ZHUHAI-1 01 (CAS-4A)    
1 42761U 17034D   21033.90471348  .00000124  00000-0  20863-4 0  9990
2 42761  43.0162 199.8458 0009690  34.8407 123.3903 15.10138146200803
MAX VALIER SAT          
1 42778U 17036P   21033.91244233  .00001196  00000-0  53443-4 0  9992
2 42778  97.2755  86.8230 0010399 293.6592  66.3554 15.23183679200804
RADFXSAT (FOX-1B)       
1 43017U 17073E   21033.67246337  .00001333  00000-0  10765-3 0  9992
2 43017  97.7166 302.9493 0256407  20.3068 340.8119 14.79291741173198
FOX-1D (AO-92)          
1 43137U 18004AC  21033.69088497  .00001746  00000-0  73335-4 0  9994
2 43137  97.4219 109.0519 0008071 335.7582  24.3275 15.24772111170121
DIWATA-2B               
1 43678U 18084H   21033.76185529  .00000042  00000-0  99363-5 0  9992
2 43678  97.9054 158.5189 0011158 131.0010 229.2197 14.91701768123353
ES'HAIL 2               
1 43700U 18090A   21033.92271946  .00000143  00000-0  00000-0 0  9999
2 43700   0.0178  91.6621 0002154 264.6259 134.9686  1.00271644  8025
FOX-1CLIFF (AO-95)      
1 43770U 18099N   21033.74061740  .00000802  00000-0  78073-4 0  9995
2 43770  97.6815 106.8127 0015557 143.9089 216.3185 14.95185064118325
ITASAT 1                
1 43786U 18099AE  21033.75402437  .00000690  00000-0  67369-4 0  9996
2 43786  97.6835 107.4098 0016307 137.3291 222.9200 14.95499914118350
JY1SAT (JO-97)          
1 43803U 18099AX  21033.73877865  .00000795  00000-0  76376-4 0  9999
2 43803  97.6792 107.1655 0016292 137.9484 222.2991 14.95714300118350
PSAT2 (NO-104)          
1 44354U 19036R   21033.94131439  .00012413  00000-0  16989-3 0  9999
2 44354  28.5317 301.1688 0341901 261.9806  94.1863 15.09230040 88602
BRICSAT2 (NO-103)       
1 44355U 19036S   21033.94436775  .00026614  00000-0  32685-3 0  9990
2 44355  28.5288 274.6258 0299360 305.1948  52.0957 15.20238260 88877
JAISAT-1                
1 44419U 19038F   21033.83795303  .00001704  00000-0  98797-4 0  9996
2 44419  97.5708 359.2275 0022717  58.6509 301.6941 15.13346732 87436
DUCHIFAT-3              
1 44854U 19089C   21033.74323043  .00000489  00000-0  45627-4 0  9996
2 44854  36.9639 177.1709 0006572 126.4707 233.6646 14.99312992 62874
RS-44 & BREEZE-KM R/B   
1 44909U 19096E   21033.52833102  .00000010  00000-0 -10667-4 0  9990
2 44909  82.5203 202.4412 0218091  48.7777 313.1896 12.79708367 51618
ORBITAL FACTORY 2 (OF-2)
1 45113U 19071C   21033.53209779  .00003542  00000-0  11466-3 0  9998
2 45113  51.6439 331.1768 0012576 162.9590 197.1818 15.34711209 56443
HUSKYSAT-1              
1 45119U 19071J   21033.87496536  .00003446  00000-0  11150-3 0  9993
2 45119  51.6434 328.9651 0011944 160.7637 199.3799 15.34822720 56493
BY70-2                  
1 45857U 20042B   21033.81641648  .00001149  00000-0  17157-3 0  9993
2 45857  97.9962 110.9437 0009525 286.1500  73.8662 14.76661965 31671
SALSAT                  
1 46495U 20068K   21033.88183959  .00000355  00000-0  30599-4 0  9997
2 46495  97.6835 332.2843 0017660 161.5250 198.6618 15.03344131 19119
BY70-3                  
1 46839U 20079N   21033.87568495  .00002281  00000-0  74531-4 0  9996
2 46839  97.2550 110.4011 0006364 341.7727 128.4914 15.32743024 13585
OSCAR 7 (AO-7)          
1 07530U 74089B   21033.78326155 -.00000035  00000-0  68831-4 0  9998
2 07530 101.8365   8.5248 0011996 281.6550 127.8612 12.53647136114855
